ATLAS CENTAUR R/B       
1 06155U 72065B   26002.60885260  .00002636  00000+0  36349-3 0  9996
2 06155  35.0030 332.9479 0033849 175.6744 184.4254 14.77477189831485
SL-8 R/B                
1 08459U 75112B   26002.83820541  .00000578  00000+0  19891-3 0  9993
2 08459  74.0607 140.0502 0016764 249.5233 110.4122 14.38162572622400
SL-3 R/B                
1 10114U 77057B   26002.76492336  .00018893  00000+0  42217-3 0  9990
2 10114  97.5686 171.9214 0007855 152.7743 207.3917 15.43535036658158
SEASAT 1                
1 10967U 78064A   26002.85025167  .00000866  00000+0  28063-3 0  9993
2 10967 108.0141 347.3267 0001240 261.8366  98.2639 14.46090040496993
SL-14 R/B               
1 11267U 79011B   26002.78266411  .00001349  00000+0  13109-3 0  9993
2 11267  82.5245 159.0868 0014672 278.7008  81.2549 14.91804447518953
SL-8 R/B                
1 11574U 79089B   26002.85304471  .00000418  00000+0  13433-3 0  9992
2 11574  74.0673 212.9026 0014972  38.8631 321.3599 14.42298155426613
SL-14 R/B               
1 11672U 80005B   26002.48398147  .00001235  00000+0  12273-3 0  9992
2 11672  82.5139  10.0227 0016542  29.4919 330.7229 14.90822874466626
SL-8 R/B                
1 12139U 81003B   26002.51547630  .00032443  00000+0  85652-3 0  9993
2 12139  82.9363 351.0853 0275659  49.0157 313.4563 15.07842246304690
SL-3 R/B                
1 12465U 81046B   26002.81378092  .00017992  00000+0  44545-3 0  9997
2 12465  81.2315   8.7166 0017986 246.2216 113.7140 15.40129307428285
SL-3 R/B                
1 12904U 81103B   26002.85225108  .00010456  00000+0  47557-3 0  9996
2 12904  81.1608 290.6243 0013561 141.3679 218.8525 15.20534772963224
SL-3 R/B                
1 13068U 82013B   26002.75842813  .00006850  00000+0  30278-3 0  9991
2 13068  81.1737 238.0048 0023695  43.4808 316.8286 15.21301558394320
SL-3 R/B                
1 13154U 82039B   26002.85009735  .00005564  00000+0  34068-3 0  9996
2 13154  81.1705 291.8074 0029596 180.6600 179.4592 15.09675350371707
