CCSDS_OMM_VERS = 2.0
CREATION_DATE  = 
ORIGINATOR     = 

OBJECT_NAME    = ATLAS CENTAUR R/B
OBJECT_ID      = 1972-065B
CENTER_NAME    = EARTH
REF_FRAME      = TEME
TIME_SYSTEM    = UTC
MEAN_ELEMENT_THEORY = SGP/SGP4

EPOCH          = 2026-01-02T14:36:44.864640
MEAN_MOTION    = 14.77477189
ECCENTRICITY   = .00338497
INCLINATION    = 35.0030
RA_OF_ASC_NODE = 332.9479
ARG_OF_PERICENTER = 175.6744
MEAN_ANOMALY   = 184.4254

EPHEMERIS_TYPE = 0
CLASSIFICATION_TYPE = U
NORAD_CAT_ID   = 6155
ELEMENT_SET_NO = 999
REV_AT_EPOCH   = 83148
BSTAR          = .36348779E-3
MEAN_MOTION_DOT = .2636E-4
MEAN_MOTION_DDOT = 0

CCSDS_OMM_VERS = 2.0
CREATION_DATE  = 
ORIGINATOR     = 

OBJECT_NAME    = SL-8 R/B
OBJECT_ID      = 1975-112B
CENTER_NAME    = EARTH
REF_FRAME      = TEME
TIME_SYSTEM    = UTC
MEAN_ELEMENT_THEORY = SGP/SGP4

EPOCH          = 2026-01-02T20:07:00.947424
MEAN_MOTION    = 14.38162572
ECCENTRICITY   = .0016764
INCLINATION    = 74.0607
RA_OF_ASC_NODE = 140.0502
ARG_OF_PERICENTER = 249.5233
MEAN_ANOMALY   = 110.4122

EPHEMERIS_TYPE = 0
CLASSIFICATION_TYPE = U
NORAD_CAT_ID   = 8459
ELEMENT_SET_NO = 999
REV_AT_EPOCH   = 62240
BSTAR          = .19891E-3
MEAN_MOTION_DOT = .578E-5
MEAN_MOTION_DDOT = 0

CCSDS_OMM_VERS = 2.0
CREATION_DATE  = 
ORIGINATOR     = 

OBJECT_NAME    = SL-3 R/B
OBJECT_ID      = 1977-057B
CENTER_NAME    = EARTH
REF_FRAME      = TEME
TIME_SYSTEM    = UTC
MEAN_ELEMENT_THEORY = SGP/SGP4

EPOCH          = 2026-01-02T18:21:29.378304
MEAN_MOTION    = 15.43535036
ECCENTRICITY   = .0007855
INCLINATION    = 97.5686
RA_OF_ASC_NODE = 171.9214
ARG_OF_PERICENTER = 152.7743
MEAN_ANOMALY   = 207.3917

EPHEMERIS_TYPE = 0
CLASSIFICATION_TYPE = U
NORAD_CAT_ID   = 10114
ELEMENT_SET_NO = 999
REV_AT_EPOCH   = 65815
BSTAR          = .42217E-3
MEAN_MOTION_DOT = .18893E-3
MEAN_MOTION_DDOT = 0

CCSDS_OMM_VERS = 2.0
CREATION_DATE  = 
ORIGINATOR     = 

OBJECT_NAME    = SEASAT 1
OBJECT_ID      = 1978-064A
CENTER_NAME    = EARTH
REF_FRAME      = TEME
TIME_SYSTEM    = UTC
MEAN_ELEMENT_THEORY = SGP/SGP4

EPOCH          = 2026-01-02T20:24:21.744288
MEAN_MOTION    = 14.46090040
ECCENTRICITY   = .000124
INCLINATION    = 108.0141
RA_OF_ASC_NODE = 347.3267
ARG_OF_PERICENTER = 261.8366
MEAN_ANOMALY   = 98.2639

EPHEMERIS_TYPE = 0
CLASSIFICATION_TYPE = U
NORAD_CAT_ID   = 10967
ELEMENT_SET_NO = 999
REV_AT_EPOCH   = 49699
BSTAR          = .28063E-3
MEAN_MOTION_DOT = .866E-5
MEAN_MOTION_DDOT = 0

CCSDS_OMM_VERS = 2.0
CREATION_DATE  = 
ORIGINATOR     = 

OBJECT_NAME    = SL-14 R/B
OBJECT_ID      = 1979-011B
CENTER_NAME    = EARTH
REF_FRAME      = TEME
TIME_SYSTEM    = UTC
MEAN_ELEMENT_THEORY = SGP/SGP4

EPOCH          = 2026-01-02T18:47:02.179104
MEAN_MOTION    = 14.91804447
ECCENTRICITY   = .0014672
INCLINATION    = 82.5245
RA_OF_ASC_NODE = 159.0868
ARG_OF_PERICENTER = 278.7008
MEAN_ANOMALY   = 81.2549

EPHEMERIS_TYPE = 0
CLASSIFICATION_TYPE = U
NORAD_CAT_ID   = 11267
ELEMENT_SET_NO = 999
REV_AT_EPOCH   = 51895
BSTAR          = .13109E-3
MEAN_MOTION_DOT = .1349E-4
MEAN_MOTION_DDOT = 0

CCSDS_OMM_VERS = 2.0
CREATION_DATE  = 
ORIGINATOR     = 

OBJECT_NAME    = SL-8 R/B
OBJECT_ID      = 1979-089B
CENTER_NAME    = EARTH
REF_FRAME      = TEME
TIME_SYSTEM    = UTC
MEAN_ELEMENT_THEORY = SGP/SGP4

EPOCH          = 2026-01-02T20:28:23.062944
MEAN_MOTION    = 14.42298155
ECCENTRICITY   = .0014972
INCLINATION    = 74.0673
RA_OF_ASC_NODE = 212.9026
ARG_OF_PERICENTER = 38.8631
MEAN_ANOMALY   = 321.3599

EPHEMERIS_TYPE = 0
CLASSIFICATION_TYPE = U
NORAD_CAT_ID   = 11574
ELEMENT_SET_NO = 999
REV_AT_EPOCH   = 42661
BSTAR          = .13433E-3
MEAN_MOTION_DOT = .418E-5
MEAN_MOTION_DDOT = 0

CCSDS_OMM_VERS = 2.0
CREATION_DATE  = 
ORIGINATOR     = 

OBJECT_NAME    = SL-14 R/B
OBJECT_ID      = 1980-005B
CENTER_NAME    = EARTH
REF_FRAME      = TEME
TIME_SYSTEM    = UTC
MEAN_ELEMENT_THEORY = SGP/SGP4

EPOCH          = 2026-01-02T11:36:55.999008
MEAN_MOTION    = 14.90822874
ECCENTRICITY   = .00165422
INCLINATION    = 82.5139
RA_OF_ASC_NODE = 10.0227
ARG_OF_PERICENTER = 29.4919
MEAN_ANOMALY   = 330.7229

EPHEMERIS_TYPE = 0
CLASSIFICATION_TYPE = U
NORAD_CAT_ID   = 11672
ELEMENT_SET_NO = 999
REV_AT_EPOCH   = 46662
BSTAR          = .12273423E-3
MEAN_MOTION_DOT = .1235E-4
MEAN_MOTION_DDOT = 0

CCSDS_OMM_VERS = 2.0
CREATION_DATE  = 
ORIGINATOR     = 

OBJECT_NAME    = SL-8 R/B
OBJECT_ID      = 1981-003B
CENTER_NAME    = EARTH
REF_FRAME      = TEME
TIME_SYSTEM    = UTC
MEAN_ELEMENT_THEORY = SGP/SGP4

EPOCH          = 2026-01-02T12:22:17.152320
MEAN_MOTION    = 15.07842246
ECCENTRICITY   = .02756593
INCLINATION    = 82.9363
RA_OF_ASC_NODE = 351.0853
ARG_OF_PERICENTER = 49.0157
MEAN_ANOMALY   = 313.4563

EPHEMERIS_TYPE = 0
CLASSIFICATION_TYPE = U
NORAD_CAT_ID   = 12139
ELEMENT_SET_NO = 999
REV_AT_EPOCH   = 30469
BSTAR          = .85651648E-3
MEAN_MOTION_DOT = .32443E-3
MEAN_MOTION_DDOT = 0

CCSDS_OMM_VERS = 2.0
CREATION_DATE  = 
ORIGINATOR     = 

OBJECT_NAME    = SL-3 R/B
OBJECT_ID      = 1981-046B
CENTER_NAME    = EARTH
REF_FRAME      = TEME
TIME_SYSTEM    = UTC
MEAN_ELEMENT_THEORY = SGP/SGP4

EPOCH          = 2026-01-02T19:31:50.671488
MEAN_MOTION    = 15.40129307
ECCENTRICITY   = .0017986
INCLINATION    = 81.2315
RA_OF_ASC_NODE = 8.7166
ARG_OF_PERICENTER = 246.2216
MEAN_ANOMALY   = 113.7140

EPHEMERIS_TYPE = 0
CLASSIFICATION_TYPE = U
NORAD_CAT_ID   = 12465
ELEMENT_SET_NO = 999
REV_AT_EPOCH   = 42828
BSTAR          = .44545E-3
MEAN_MOTION_DOT = .17992E-3
MEAN_MOTION_DDOT = 0

CCSDS_OMM_VERS = 2.0
CREATION_DATE  = 
ORIGINATOR     = 

OBJECT_NAME    = SL-3 R/B
OBJECT_ID      = 1981-103B
CENTER_NAME    = EARTH
REF_FRAME      = TEME
TIME_SYSTEM    = UTC
MEAN_ELEMENT_THEORY = SGP/SGP4

EPOCH          = 2026-01-02T20:27:14.493312
MEAN_MOTION    = 15.20534772
ECCENTRICITY   = .0013561
INCLINATION    = 81.1608
RA_OF_ASC_NODE = 290.6243
ARG_OF_PERICENTER = 141.3679
MEAN_ANOMALY   = 218.8525

EPHEMERIS_TYPE = 0
CLASSIFICATION_TYPE = U
NORAD_CAT_ID   = 12904
ELEMENT_SET_NO = 999
REV_AT_EPOCH   = 96322
BSTAR          = .47557E-3
MEAN_MOTION_DOT = .10456E-3
MEAN_MOTION_DDOT = 0

CCSDS_OMM_VERS = 2.0
CREATION_DATE  = 
ORIGINATOR     = 

OBJECT_NAME    = SL-3 R/B
OBJECT_ID      = 1982-013B
CENTER_NAME    = EARTH
REF_FRAME      = TEME
TIME_SYSTEM    = UTC
MEAN_ELEMENT_THEORY = SGP/SGP4

EPOCH          = 2026-01-02T18:12:08.190432
MEAN_MOTION    = 15.21301558
ECCENTRICITY   = .0023695
INCLINATION    = 81.1737
RA_OF_ASC_NODE = 238.0048
ARG_OF_PERICENTER = 43.4808
MEAN_ANOMALY   = 316.8286

EPHEMERIS_TYPE = 0
CLASSIFICATION_TYPE = U
NORAD_CAT_ID   = 13068
ELEMENT_SET_NO = 999
REV_AT_EPOCH   = 39432
BSTAR          = .30278E-3
MEAN_MOTION_DOT = .685E-4
MEAN_MOTION_DDOT = 0

CCSDS_OMM_VERS = 2.0
CREATION_DATE  = 
ORIGINATOR     = 

OBJECT_NAME    = SL-3 R/B
OBJECT_ID      = 1982-039B
CENTER_NAME    = EARTH
REF_FRAME      = TEME
TIME_SYSTEM    = UTC
MEAN_ELEMENT_THEORY = SGP/SGP4

EPOCH          = 2026-01-02T20:24:08.411040
MEAN_MOTION    = 15.09675350
ECCENTRICITY   = .0029596
INCLINATION    = 81.1705
RA_OF_ASC_NODE = 291.8074
ARG_OF_PERICENTER = 180.6600
MEAN_ANOMALY   = 179.4592

EPHEMERIS_TYPE = 0
CLASSIFICATION_TYPE = U
NORAD_CAT_ID   = 13154
ELEMENT_SET_NO = 999
REV_AT_EPOCH   = 37170
BSTAR          = .34068E-3
MEAN_MOTION_DOT = .5564E-4
MEAN_MOTION_DDOT = 0

